{
    "links": {
        "self": "http://www.neowsapp.com/rest/v1/neo/3250294?api_key=iIulBulltgU6a56xZRHN4H3l9WmuAYTsLGpBGhQ2"
    },
    "id": "3250294",
    "neo_reference_id": "3250294",
    "name": "(2004 QN22)",
    "designation": "2004 QN22",
    "nasa_jpl_url": "http://ssd.jpl.nasa.gov/sbdb.cgi?sstr=3250294",
    "absolute_magnitude_h": 24.2,
    "estimated_diameter": {
        "kilometers": {
            "estimated_diameter_min": 0.0384197891,
            "estimated_diameter_max": 0.0859092601
        },
        "meters": {
            "estimated_diameter_min": 38.4197891064,
            "estimated_diameter_max": 85.9092601232
        },
        "miles": {
            "estimated_diameter_min": 0.0238729428,
            "estimated_diameter_max": 0.0533815229
        },
        "feet": {
            "estimated_diameter_min": 126.0491808919,
            "estimated_diameter_max": 281.8545369825
        }
    },
    "is_potentially_hazardous_asteroid": false,
    "close_approach_data": [
        {
            "close_approach_date": "2004-08-27",
            "close_approach_date_full": "2004-Aug-27 04:01",
            "epoch_date_close_approach": 1093579260000,
            "relative_velocity": {
                "kilometers_per_second": "9.2295378561",
                "kilometers_per_hour": "33226.3362820713",
                "miles_per_hour": "20645.5532303792"
            },
            "miss_distance": {
                "astronomical": "0.0349881012",
                "lunar": "13.6103713668",
                "kilometers": "5234145.414864444",
                "miles": "3252347.1474555672"
            },
            "orbiting_body": "Earth"
        }
    ],
    "orbital_data": {
        "orbit_id": "9",
        "orbit_determination_date": "2017-04-06 09:12:23",
        "first_observation_date": "2004-08-25",
        "last_observation_date": "2004-09-02",
        "data_arc_in_days": 8,
        "observations_used": 30,
        "orbit_uncertainty": "8",
        "minimum_orbit_intersection": ".0117548",
        "jupiter_tisserand_invariant": "3.196",
        "epoch_osculation": "2453246.5",
        "eccentricity": ".5916730484902785",
        "semi_major_axis": "2.490003264333279",
        "inclination": "7.110846020583394",
        "ascending_node_longitude": "163.1670798723549",
        "orbital_period": "1435.1533250634",
        "perihelion_distance": "1.016735442174463",
        "perihelion_argument": "187.6780919960141",
        "aphelion_distance": "3.963271086492095",
        "perihelion_time": "2453257.528739033540",
        "mean_anomaly": "357.2335039171518",
        "mean_motion": ".2508442782474802",
        "equinox": "J2000",
        "orbit_class": {
            "orbit_class_type": "APO",
            "orbit_class_description": "Near-Earth asteroid orbits which cross the Earth’s orbit similar to that of 1862 Apollo",
            "orbit_class_range": "a (semi-major axis) > 1.0 AU; q (perihelion) < 1.017 AU"
        }
    },
    "is_sentry_object": false
}